AXXXTestLogger
HFDTE010724
HFPLTPILOTINCHARGE:Jane Doe
HFGTYGLIDERTYPE:ASK 21
HFGIDGLIDERID:D-1234
B1200004501234N00605678EA0080000803
B1200104501236N00605679EA0080200805
B1200204501238N00605680EA0080400807
B1200304501240N00605681EA0080600809
B1200404501242N00605682EA0080800811
B1200504501244N00605683EA0081000813
B1201004501246N00605684EA0081200815
B1201104501248N00605685EA0081400817
B1201204501250N00605686EA0081600819
B1201304501252N00605687EA0081800821
B1201404501254N00605688EA0082000823
B1201504501256N00605689EA0082200825
B1202004501258N00605690EA0082400827
B1202104501260N00605691EA0082600829
B1202204501262N00605692EA0082800831
B1202304501264N00605693EA0083000833
B1202404501266N00605694EA0083200835
B1202504501268N00605695EA0083400837
B1203004501270N00605696EA0083600839
B1203104501272N00605697EA0083800841
B1203204501274N00605698EA0084000843
B1203304501276N00605699EA0084200845
B1203404501278N00605700EA0084400847
B1203504501280N00605701EA0084600849
B1204004501282N00605702EA0084800851
B1204104501284N00605703EA0085000853
B1204204501286N00605704EA0085200855
B1204304501288N00605705EA0085400857
B1204404501290N00605706EA0085600859
B1204504501292N00605707EA0085800861
G0000000000000000000000000000000000000000000000000000000000000000
